NORAD_CAT_ID,OBJECT_NAME,OBJECT_TYPE,EPOCH,MEAN_MOTION,ECCENTRICITY,INCLINATION,RA_OF_ASC_NODE,ARG_OF_PERICENTER,MEAN_ANOMALY,BSTAR,MEAN_MOTION_DOT,MEAN_MOTION_DDOT,TLE_LINE0,TLE_LINE1,TLE_LINE2,SEMIMAJOR_AXIS,PERIOD,APOGEE,PERIGEE,DECAYED
53750.0,STARLINK-4612,PAYLOAD,2023-07-03 11:50:53,15.08838862,9.18e-05,53.2172,344.6361,96.2092,263.9005,7.4215e-05,8.94e-06,0.0,0 STARLINK-4612,1 53750U 22107BC  23184.49367754  .00000894  00000-0  74215-4 0  9999,2 53750  53.2172 344.6361 0000918  96.2092 263.9005 15.08838862 45839,6917.884,95.438,540.384,539.114,0.0
53750.0,STARLINK-4612,PAYLOAD,2023-07-03 22:58:34,15.08849606,9.07e-05,53.2173,342.5539,95.1097,264.9999,0.00011222,1.499e-05,0.0,0 STARLINK-4612,1 53750U 22107BC  23184.95734846  .00001499  00000-0  11222-3 0  9990,2 53750  53.2173 342.5539 0000907  95.1097 264.9999 15.08849606 45904,6917.851,95.437,540.343,539.089,0.0
53750.0,STARLINK-4612,PAYLOAD,2023-07-04 10:06:18,15.08828255,8.42e-05,53.2173,340.4723,77.3498,282.7589,-1.8772e-06,-3.18e-06,0.0,0 STARLINK-4612,1 53750U 22107BC  23185.42104670 -.00000318  00000-0 -18772-5 0  9999,2 53750  53.2173 340.4723 0000842  77.3498 282.7589 15.08828255 45978,6917.916,95.438,540.364,539.199,0.0
53750.0,STARLINK-4612,PAYLOAD,2023-07-04 16:27:50,15.08833924,9.07e-05,53.2172,339.2831,88.0211,272.0885,4.3004e-05,3.97e-06,0.0,0 STARLINK-4612,1 53750U 22107BC  23185.68600329  .00000397  00000-0  43004-4 0  9999,2 53750  53.2172 339.2831 0000907  88.0211 272.0885 15.08833924 46013,6917.899,95.438,540.391,539.137,0.0
53750.0,STARLINK-4612,PAYLOAD,2023-07-04 19:38:36,15.08841306,9.21e-05,53.2176,338.6874,86.7679,273.3418,3.7159e-05,3.04e-06,0.0,0 STARLINK-4612,1 53750U 22107BC  23185.81847885  .00000304  00000-0  37159-4 0  9996,2 53750  53.2176 338.6874 0000921  86.7679 273.3418 15.08841306 46037,6917.876,95.437,540.379,539.104,0.0
53750.0,STARLINK-4612,PAYLOAD,2023-07-06 05:01:42,15.08847492,0.0001514,53.2179,332.4448,56.7712,303.3425,1.557e-05,-4e-07,0.0,0 STARLINK-4612,1 53750U 22107BC  23187.20951724 -.00000040  00000-0  15570-4 0  9990,2 53750  53.2179 332.4448 0001514  56.7712 303.3425 15.08847492 46240,6917.857,95.437,540.77,538.675,0.0
53750.0,STARLINK-4612,PAYLOAD,2023-07-07 09:38:39,15.08833841,9.98e-05,53.2175,327.0899,86.7246,273.386,0.00013495,1.86e-05,0.0,0 STARLINK-4612,1 53750U 22107BC  23188.40184348  .00001860  00000-0  13495-3 0  9996,2 53750  53.2175 327.0899 0000998  86.7246 273.3860 15.08833841 46428,6917.899,95.438,540.455,539.074,0.0
53750.0,STARLINK-4612,PAYLOAD,2023-07-07 16:00:11,15.08845921,9.28e-05,53.2177,325.9014,85.5726,274.5372,9.1663e-05,1.172e-05,0.0,0 STARLINK-4612,1 53750U 22107BC  23188.66679579  .00001172  00000-0  91663-4 0  9999,2 53750  53.2177 325.9014 0000928  85.5726 274.5372 15.08845921 46466,6917.862,95.437,540.369,539.085,0.0
53750.0,STARLINK-4612,PAYLOAD,2023-07-08 09:29:26,15.08838453,9.73e-05,53.2178,322.6308,86.7939,273.3164,5.935e-05,6.57e-06,0.0,0 STARLINK-4612,1 53750U 22107BC  23189.39544152  .00000657  00000-0  59350-4 0  9992,2 53750  53.2178 322.6308 0000973  86.7939 273.3164 15.08838453 46576,6917.885,95.438,540.423,539.077,0.0
53750.0,STARLINK-4612,PAYLOAD,2023-07-09 12:31:00,15.0882935,0.0001002,53.2176,317.5761,93.1418,266.9689,-3.5878e-05,-8.58e-06,0.0,0 STARLINK-4612,1 53750U 22107BC  23190.52153163 -.00000858  00000-0 -35878-4 0  9991,2 53750  53.2176 317.5761 0001002  93.1418 266.9689 15.08829350 46743,6917.913,95.438,540.471,539.085,0.0
53750.0,STARLINK-4612,PAYLOAD,2023-07-09 18:52:32,15.08834287,0.0001041,53.2178,316.3863,94.3005,265.8106,-3.0596e-06,-3.36e-06,0.0,0 STARLINK-4612,1 53750U 22107BC  23190.78648855 -.00000336  00000-0 -30596-5 0  9990,2 53750  53.2178 316.3863 0001041  94.3005 265.8106 15.08834287 46784,6917.898,95.438,540.483,539.043,0.0
53750.0,STARLINK-4612,PAYLOAD,2023-07-10 17:07:55,15.08848134,9.72e-05,53.2179,312.2231,93.0241,267.0863,0.00012972,1.778e-05,0.0,0 STARLINK-4612,1 53750U 22107BC  23191.71383815  .00001778  00000-0  12972-3 0  9991,2 53750  53.2179 312.2231 0000972  93.0241 267.0863 15.08848134 46925,6917.856,95.437,540.393,539.048,0.0
53750.0,STARLINK-4612,PAYLOAD,2023-07-11 01:04:52,15.08834601,6.61e-05,53.2178,310.7353,102.9022,257.2044,-3.6759e-05,-8.72e-06,0.0,0 STARLINK-4612,1 53750U 22107BC  23192.04504920 -.00000872  00000-0 -36759-4 0  9996,2 53750  53.2178 310.7353 0000661 102.9022 257.2044 15.08834601 46975,6917.897,95.438,540.219,539.305,0.0
53750.0,STARLINK-4612,PAYLOAD,2023-07-12 00:55:38,15.08845893,9.47e-05,53.216,306.2748,87.3277,272.7823,0.00017532,2.504e-05,0.0,0 STARLINK-4612,1 53750U 22107BC  23193.03864324  .00002504  00000-0  17532-3 0  9992,2 53750  53.2160 306.2748 0000947  87.3277 272.7823 15.08845893 47129,6917.862,95.437,540.382,539.072,0.0
53750.0,STARLINK-4612,PAYLOAD,2023-07-13 13:29:31,15.08834334,9.44e-05,53.217,299.4397,49.7001,310.4074,5.3117e-05,5.58e-06,0.0,0 STARLINK-4612,1 53750U 22107BC  23194.56216955  .00000558  00000-0  53117-4 0  9999,2 53750  53.2170 299.4397 0000944  49.7001 310.4074 15.08834334 47358,6917.898,95.438,540.416,539.11,0.0
53750.0,STARLINK-4612,PAYLOAD,2023-07-14 10:09:31,15.08843123,0.0001194,53.2171,295.5732,79.7098,280.4029,5.4062e-05,5.73e-06,0.0,0 STARLINK-4612,1 53750U 22107BC  23195.42328597  .00000573  00000-0  54062-4 0  9998,2 53750  53.2171 295.5732 0001194  79.7098 280.4029 15.08843123 47482,6917.871,95.437,540.562,538.91,0.0
53750.0,STARLINK-4612,PAYLOAD,2023-07-15 11:35:42,15.08837259,0.0001061,53.217,290.8145,85.3091,274.8023,0.00011488,1.541e-05,0.0,0 STARLINK-4612,1 53750U 22107BC  23196.48312831  .00001541  00000-0  11488-3 0  9999,2 53750  53.2170 290.8145 0001061  85.3091 274.8023 15.08837259 47648,6917.889,95.438,540.488,539.02,0.0
53750.0,STARLINK-4612,PAYLOAD,2023-07-16 05:04:57,15.08831099,0.0001096,53.2171,287.5423,94.9242,265.1875,-4.6059e-06,-3.61e-06,0.0,0 STARLINK-4612,1 53750U 22107BC  23197.21177790 -.00000361  00000-0 -46059-5 0  9999,2 53750  53.2171 287.5423 0001096  94.9242 265.1875 15.08831099 47759,6917.908,95.438,540.531,539.014,0.0
53750.0,STARLINK-4612,PAYLOAD,2023-07-16 22:34:11,15.08837287,0.000105,53.2171,284.2718,98.2461,261.865,6.6139e-05,7.65e-06,0.0,0 STARLINK-4612,1 53750U 22107BC  23197.94041473  .00000765  00000-0  66139-4 0  9993,2 53750  53.2171 284.2718 0001050  98.2461 261.8650 15.08837287 47861,6917.889,95.438,540.48,539.027,0.0
53750.0,STARLINK-4612,PAYLOAD,2023-07-17 12:52:39,15.08847591,0.0001015,53.2162,281.5955,93.1133,266.9975,0.00019182,2.767e-05,0.0,0 STARLINK-4612,1 53750U 22107BC  23198.53656868  .00002767  00000-0  19182-3 0  9998,2 53750  53.2162 281.5955 0001015  93.1133 266.9975 15.08847591 47950,6917.857,95.437,540.424,539.02,0.0
53750.0,STARLINK-4612,PAYLOAD,2023-07-18 11:08:03,15.08844702,0.0001089,53.2159,277.4321,90.3485,269.7632,0.00018217,2.613e-05,0.0,0 STARLINK-4612,1 53750U 22107BC  23199.46393142  .00002613  00000-0  18217-3 0  9992,2 53750  53.2159 277.4321 0001089  90.3485 269.7632 15.08844702 48095,6917.866,95.437,540.484,538.978,0.0
53750.0,STARLINK-4612,PAYLOAD,2023-07-19 09:23:28,15.08832063,0.0001516,53.2168,273.2695,102.5281,257.5881,-9.3357e-05,-1.773e-05,0.0,0 STARLINK-4612,1 53750U 22107BC  23200.39129760 -.00001773  00000-0 -93357-4 0  9997,2 53750  53.2168 273.2695 0001516 102.5281 257.5881 15.08832063 48232,6917.905,95.438,540.818,538.721,0.0
53750.0,STARLINK-4612,PAYLOAD,2023-07-20 10:49:38,15.08844108,0.0001182,53.2167,268.5107,86.0336,274.0791,9.0494e-05,1.153e-05,0.0,0 STARLINK-4612,1 53750U 22107BC  23201.45113666  .00001153  00000-0  90494-4 0  9992,2 53750  53.2167 268.5107 0001182  86.0336 274.0791 15.08844108 48396,6917.868,95.437,540.551,538.915,0.0
53750.0,STARLINK-4612,PAYLOAD,2023-07-23 04:00:26,15.08840725,0.000137,53.217,256.3188,105.1856,254.9288,3.4722e-05,2.65e-06,0.0,0 STARLINK-4612,1 53750U 22107BC  23204.16697801  .00000265  00000-0  34722-4 0  9996,2 53750  53.2170 256.3188 0001370 105.1856 254.9288 15.08840725 48808,6917.878,95.438,540.691,538.795,0.0
53750.0,STARLINK-4612,PAYLOAD,2023-07-25 13:14:19,15.08840521,0.0001117,53.2152,245.6127,96.2045,263.9074,0.00010478,1.38e-05,0.0,0 STARLINK-4612,1 53750U 22107BC  23206.55161992  .00001380  00000-0  10478-3 0  9998,2 53750  53.2152 245.6127 0001117  96.2045 263.9074 15.08840521 49955,6917.879,95.438,540.517,538.971,0.0
53750.0,STARLINK-4612,PAYLOAD,2023-07-26 11:29:44,15.08838777,0.0001301,53.2154,241.4498,82.8244,277.2896,0.00011629,1.563e-05,0.0,0 STARLINK-4612,1 53750U 22107BC  23207.47898312  .00001563  00000-0  11629-3 0  9995,2 53750  53.2154 241.4498 0001301  82.8244 277.2896 15.08838777 50096,6917.884,95.438,540.649,538.849,0.0
53750.0,STARLINK-4612,PAYLOAD,2023-07-26 19:26:39,15.0884062,0.0001218,53.2155,239.9625,87.1024,273.0107,0.00012371,1.682e-05,0.0,0 STARLINK-4612,1 53750U 22107BC  23207.81018173  .00001682  00000-0  12371-3 0  9999,2 53750  53.2155 239.9625 0001218  87.1024 273.0107 15.08840620 50147,6917.878,95.438,540.586,538.901,0.0
53750.0,STARLINK-4612,PAYLOAD,2023-07-27 08:09:44,15.08845939,0.0001188,53.2153,237.5835,87.0795,273.0333,0.00010124,1.324e-05,0.0,0 STARLINK-4612,1 53750U 22107BC  23208.34009870  .00001324  00000-0  10124-3 0  9999,2 53750  53.2153 237.5835 0001188  87.0795 273.0333 15.08845939 49431,6917.862,95.437,540.549,538.905,0.0
53750.0,STARLINK-4612,PAYLOAD,2023-07-27 19:17:26,15.0883967,0.0001118,53.2148,235.5016,86.822,273.29,2.9452e-05,1.81e-06,0.0,0 STARLINK-4612,1 53750U 22107BC  23208.80378354  .00000181  00000-0  29452-4 0  9991,2 53750  53.2148 235.5016 0001118  86.8220 273.2900 15.08839670 50290,6917.881,95.438,540.52,538.973,0.0
53750.0,STARLINK-4612,PAYLOAD,2023-07-28 01:38:59,15.0883504,0.0001152,53.215,234.3125,86.4198,273.6926,3.322e-05,2.41e-06,0.0,0 STARLINK-4612,1 53750U 22107BC  23209.06874711  .00000241  00000-0  33220-4 0  9993,2 53750  53.2150 234.3125 0001152  86.4198 273.6926 15.08835040 49544,6917.896,95.438,540.557,538.964,0.0
